{"type": "FeatureCollection", "features": [ {"type": "Feature", "properties": {"norad_id": 32169, "name": "FENGYUN 1C DEB", "group": "fengyun-1c-debris", "lat": 66.78273787067639, "lon": 162.60574149537288, "alt_km": 639.7000437612123, "timestamp": "2025-12-20T03:42:47.678672+00:00", "meta": {"OBJECT_NAME": "FENGYUN 1C DEB", "OBJECT_ID": "1999-025CTP", "EPOCH": "2025-12-19T19:13:30.605088", "MEAN_MOTION": 14.6806048, "ECCENTRICITY": 0.0033552, "INCLINATION": 98.5576, "RA_OF_ASC_NODE": 182.7868, "ARG_OF_PERICENTER": 96.8847, "MEAN_ANOMALY": 263.6175, "EPHEMERIS_TYPE": 0, "CLASSIFICATION_TYPE": "U", "NORAD_CAT_ID": 32169, "ELEMENT_SET_NO": 999, "REV_AT_EPOCH": 96722, "BSTAR": 0.0026981, "MEAN_MOTION_DOT": 0.00015594, "MEAN_MOTION_DDOT": 0}, "tle": {"line1": "1 32169U 99025CTP 25353.80104867  .00015594  00000+0  26981-2 0  9999", "line2": "2 32169  98.5576 182.7868 0033552  96.8847 263.6175 14.68060480967226"}}, "geometry": {"type": "Point", "coordinates": [162.60574149537288, 66.78273787067639]}}, {"type": "Feature", "properties": {"norad_id": 32171, "name": "FENGYUN 1C DEB", "group": "fengyun-1c-debris", "lat": 70.64960485809348, "lon": 113.5296856924297, "alt_km": 1229.410310394067, "timestamp": "2025-12-20T03:42:47.678682+00:00", "meta": {"OBJECT_NAME": "FENGYUN 1C DEB", "OBJECT_ID": "1999-025CTR", "EPOCH": "2025-12-17T23:26:00.348288", "MEAN_MOTION": 13.42609487, "ECCENTRICITY": 0.04889541, "INCLINATION": 102.8055, "RA_OF_ASC_NODE": 250.4011, "ARG_OF_PERICENTER": 354.7461, "MEAN_ANOMALY": 20.6247, "EPHEMERIS_TYPE": 0, "CLASSIFICATION_TYPE": "U", "NORAD_CAT_ID": 32171, "ELEMENT_SET_NO": 999, "REV_AT_EPOCH": 60686, "BSTAR": 0.0033377521, "MEAN_MOTION_DOT": 3.796e-05, "MEAN_MOTION_DDOT": 0}, "tle": {"line1": "1 32171U 99025CTR 25351.97639292  .00003796  00000+0  33378-2 0  9992", "line2": "2 32171 102.8055 250.4011 0488954 354.7461  20.6247 13.42609487606869"}}, "geometry": {"type": "Point", "coordinates": [113.5296856924297, 70.64960485809348]}}, {"type": "Feature", "properties": {"norad_id": 32174, "name": "FENGYUN 1C DEB", "group": "fengyun-1c-debris", "lat": 9.727570236352049, "lon": -122.44235187888187, "alt_km": 769.7738387031868, "timestamp": "2025-12-20T03:42:47.678697+00:00", "meta": {"OBJECT_NAME": "FENGYUN 1C DEB", "OBJECT_ID": "1999-025CTU", "EPOCH": "2025-12-14T21:34:34.410432", "MEAN_MOTION": 14.17923145, "ECCENTRICITY": 0.01505704, "INCLINATION": 98.6008, "RA_OF_ASC_NODE": 50.9784, "ARG_OF_PERICENTER": 239.665, "MEAN_ANOMALY": 118.9562, "EPHEMERIS_TYPE": 0, "CLASSIFICATION_TYPE": "U", "NORAD_CAT_ID": 32174, "ELEMENT_SET_NO": 999, "REV_AT_EPOCH": 64136, "BSTAR": 0.00031806491, "MEAN_MOTION_DOT": 6.84e-06, "MEAN_MOTION_DDOT": 0}, "tle": {"line1": "1 32174U 99025CTU 25348.89900938  .00000684  00000+0  31806-3 0  9998", "line2": "2 32174  98.6008  50.9784 0150570 239.6650 118.9562 14.17923145641361"}}, "geometry": {"type": "Point", "coordinates": [-122.44235187888187, 9.727570236352049]}}, {"type": "Feature", "properties": {"norad_id": 32175, "name": "FENGYUN 1C DEB", "group": "fengyun-1c-debris", "lat": 15.737122130916475, "lon": 164.90497361078255, "alt_km": 994.9275295624257, "timestamp": "2025-12-20T03:42:47.678708+00:00", "meta": {"OBJECT_NAME": "FENGYUN 1C DEB", "OBJECT_ID": "1999-025CTV", "EPOCH": "2025-12-18T06:09:26.308800", "MEAN_MOTION": 13.94848642, "ECCENTRICITY": 0.01519453, "INCLINATION": 98.8229, "RA_OF_ASC_NODE": 340.581, "ARG_OF_PERICENTER": 308.0289, "MEAN_ANOMALY": 50.7239, "EPHEMERIS_TYPE": 0, "CLASSIFICATION_TYPE": "U", "NORAD_CAT_ID": 32175, "ELEMENT_SET_NO": 999, "REV_AT_EPOCH": 59917, "BSTAR": 0.0025010704, "MEAN_MOTION_DOT": 3.654e-05, "MEAN_MOTION_DDOT": 0}, "tle": {"line1": "1 32175U 99025CTV 25352.25655450  .00003654  00000+0  25011-2 0  9990", "line2": "2 32175  98.8229 340.5810 0151945 308.0289  50.7239 13.94848642599170"}}, "geometry": {"type": "Point", "coordinates": [164.90497361078255, 15.737122130916475]}}, {"type": "Feature", "properties": {"norad_id": 32177, "name": "FENGYUN 1C DEB", "group": "fengyun-1c-debris", "lat": 41.47054327451416, "lon": -167.83048033066405, "alt_km": 717.0645228771555, "timestamp": "2025-12-20T03:42:47.678718+00:00", "meta": {"OBJECT_NAME": "FENGYUN 1C DEB", "OBJECT_ID": "1999-025CTX", "EPOCH": "2025-12-19T07:17:54.949344", "MEAN_MOTION": 14.56293661, "ECCENTRICITY": 0.0051637, "INCLINATION": 99.0437, "RA_OF_ASC_NODE": 3.1558, "ARG_OF_PERICENTER": 25.4129, "MEAN_ANOMALY": 334.9588, "EPHEMERIS_TYPE": 0, "CLASSIFICATION_TYPE": "U", "NORAD_CAT_ID": 32177, "ELEMENT_SET_NO": 999, "REV_AT_EPOCH": 71134, "BSTAR": 0.00096839, "MEAN_MOTION_DOT": 4.312e-05, "MEAN_MOTION_DDOT": 0}, "tle": {"line1": "1 32177U 99025CTX 25353.30410821  .00004312  00000+0  96839-3 0  9999", "line2": "2 32177  99.0437   3.1558 0051637  25.4129 334.9588 14.56293661711340"}}, "geometry": {"type": "Point", "coordinates": [-167.83048033066405, 41.47054327451416]}}, {"type": "Feature", "properties": {"norad_id": 32178, "name": "FENGYUN 1C DEB", "group": "fengyun-1c-debris", "lat": -3.44818943600275, "lon": 176.20875760385553, "alt_km": 851.5404914653109, "timestamp": "2025-12-20T03:42:47.678729+00:00", "meta": {"OBJECT_NAME": "FENGYUN 1C DEB", "OBJECT_ID": "1999-025CTY", "EPOCH": "2025-12-19T06:35:46.322016", "MEAN_MOTION": 14.2302281, "ECCENTRICITY": 0.0094455, "INCLINATION": 100.3031, "RA_OF_ASC_NODE": 355.8088, "ARG_OF_PERICENTER": 305.4273, "MEAN_ANOMALY": 53.8108, "EPHEMERIS_TYPE": 0, "CLASSIFICATION_TYPE": "U", "NORAD_CAT_ID": 32178, "ELEMENT_SET_NO": 999, "REV_AT_EPOCH": 64096, "BSTAR": 0.00088752, "MEAN_MOTION_DOT": 2.036e-05, "MEAN_MOTION_DDOT": 0}, "tle": {"line1": "1 32178U 99025CTY 25353.27484169  .00002036  00000+0  88752-3 0  9998", "line2": "2 32178 100.3031 355.8088 0094455 305.4273  53.8108 14.23022810640962"}}, "geometry": {"type": "Point", "coordinates": [176.20875760385553, -3.44818943600275]}}, {"type": "Feature", "properties": {"norad_id": 32179, "name": "FENGYUN 1C DEB", "group": "fengyun-1c-debris", "lat": 42.046463865994184, "lon": 34.70533769626348, "alt_km": 939.5382860968775, "timestamp": "2025-12-20T03:42:47.678739+00:00", "meta": {"OBJECT_NAME": "FENGYUN 1C DEB", "OBJECT_ID": "1999-025CTZ", "EPOCH": "2025-12-18T14:36:04.499424", "MEAN_MOTION": 14.03685466, "ECCENTRICITY": 0.01456631, "INCLINATION": 98.9086, "RA_OF_ASC_NODE": 41.3221, "ARG_OF_PERICENTER": 173.6117, "MEAN_ANOMALY": 340.7705, "EPHEMERIS_TYPE": 0, "CLASSIFICATION_TYPE": "U", "NORAD_CAT_ID": 32179, "ELEMENT_SET_NO": 999, "REV_AT_EPOCH": 65810, "BSTAR": 0.00034833521, "MEAN_MOTION_DOT": 5.59e-06, "MEAN_MOTION_DDOT": 0}, "tle": {"line1": "1 32179U 99025CTZ 25352.60838541  .00000559  00000+0  34834-3 0  9992", "line2": "2 32179  98.9086  41.3221 0145663 173.6117 340.7705 14.03685466658107"}}, "geometry": {"type": "Point", "coordinates": [34.70533769626348, 42.046463865994184]}}, {"type": "Feature", "properties": {"norad_id": 32180, "name": "FENGYUN 1C DEB", "group": "fengyun-1c-debris", "lat": 63.06382014981117, "lon": -126.17410033311494, "alt_km": 923.367856424502, "timestamp": "2025-12-20T03:42:47.678749+00:00", "meta": {"OBJECT_NAME": "FENGYUN 1C DEB", "OBJECT_ID": "1999-025CUA", "EPOCH": "2025-12-18T09:32:31.458048", "MEAN_MOTION": 13.82329231, "ECCENTRICITY": 0.01365397, "INCLINATION": 99.5851, "RA_OF_ASC_NODE": 32.6161, "ARG_OF_PERICENTER": 195.5515, "MEAN_ANOMALY": 181.6656, "EPHEMERIS_TYPE": 0, "CLASSIFICATION_TYPE": "U", "NORAD_CAT_ID": 32180, "ELEMENT_SET_NO": 999, "REV_AT_EPOCH": 94346, "BSTAR": 0.00010110798, "MEAN_MOTION_DOT": 7.1e-07, "MEAN_MOTION_DDOT": 0}, "tle": {"line1": "1 32180U 99025CUA 25352.39758632  .00000071  00000+0  10111-3 0  9993", "line2": "2 32180  99.5851  32.6161 0136539 195.5515 181.6656 13.82329231943463"}}, "geometry": {"type": "Point", "coordinates": [-126.17410033311494, 63.06382014981117]}}, {"type": "Feature", "properties": {"norad_id": 32181, "name": "FENGYUN 1C DEB", "group": "fengyun-1c-debris", "lat": -29.957482266546208, "lon": -86.5901323281541, "alt_km": 755.2491754311532, "timestamp": "2025-12-20T03:42:47.678759+00:00", "meta": {"OBJECT_NAME": "FENGYUN 1C DEB", "OBJECT_ID": "1999-025CUB", "EPOCH": "2025-12-18T13:07:23.257344", "MEAN_MOTION": 14.56075641, "ECCENTRICITY": 0.00735151, "INCLINATION": 99.4718, "RA_OF_ASC_NODE": 97.1082, "ARG_OF_PERICENTER": 68.2232, "MEAN_ANOMALY": 357.8706, "EPHEMERIS_TYPE": 0, "CLASSIFICATION_TYPE": "U", "NORAD_CAT_ID": 32181, "ELEMENT_SET_NO": 999, "REV_AT_EPOCH": 96805, "BSTAR": 0.00066927214, "MEAN_MOTION_DOT": 2.999e-05, "MEAN_MOTION_DDOT": 0}, "tle": {"line1": "1 32181U 99025CUB 25352.54679696  .00002999  00000+0  66927-3 0  9990", "line2": "2 32181  99.4718  97.1082 0073515  68.2232 357.8706 14.56075641968059"}}, "geometry": {"type": "Point", "coordinates": [-86.5901323281541, -29.957482266546208]}}, {"type": "Feature", "properties": {"norad_id": 32183, "name": "FENGYUN 1C DEB", "group": "fengyun-1c-debris", "lat": -56.44694085269058, "lon": -148.2445794189535, "alt_km": 895.441159149048, "timestamp": "2025-12-20T03:42:47.678772+00:00", "meta": {"OBJECT_NAME": "FENGYUN 1C DEB", "OBJECT_ID": "1999-025CUD", "EPOCH": "2025-12-18T09:43:14.709504", "MEAN_MOTION": 14.10098698, "ECCENTRICITY": 0.00425368, "INCLINATION": 98.7124, "RA_OF_ASC_NODE": 43.429, "ARG_OF_PERICENTER": 45.0938, "MEAN_ANOMALY": 315.3673, "EPHEMERIS_TYPE": 0, "CLASSIFICATION_TYPE": "U", "NORAD_CAT_ID": 32183, "ELEMENT_SET_NO": 999, "REV_AT_EPOCH": 72844, "BSTAR": 0.00054811543, "MEAN_MOTION_DOT": 9.34e-06, "MEAN_MOTION_DDOT": 0}, "tle": {"line1": "1 32183U 99025CUD 25352.40503136  .00000934  00000+0  54812-3 0  9999", "line2": "2 32183  98.7124  43.4290 0042536  45.0938 315.3673 14.10098698728440"}}, "geometry": {"type": "Point", "coordinates": [-148.2445794189535, -56.44694085269058]}}]}